     2              NAVIGATION DATA                         RINEX VERSION / TYPE
CCRINEXN V1.6.0 UX  CDDIS               31-MAY-22 23:31     PGM / RUN BY / DATE 
IGS BROADCAST EPHEMERIS FILE                                COMMENT             
    0.1024D-07  0.2235D-07 -0.5960D-07 -0.1192D-06          ION ALPHA           
    0.9626D+05  0.1311D+06 -0.6554D+05 -0.5898D+06          ION BETA            
    0.000000000000D+00-0.355271367880D-14   319488     2212 DELTA-UTC: A0,A1,T,W
    18                                                      LEAP SECONDS        
                                                            END OF HEADER       
28 22  5 30  4  0  0.0 0.348516274244D-03-0.738964445190D-11 0.000000000000D+00
    0.420000000000D+02 0.143406250000D+03 0.388266172845D-08-0.311423774299D+01
    0.736676156521D-05 0.165521546733D-01 0.812858343124D-05 0.515368735313D+04
    0.100800000000D+06 0.145286321640D-06 0.480529126824D+00 0.800937414169D-07
    0.968591449356D+00 0.225812500000D+03-0.127778975353D+01-0.748781189742D-08
    0.410731394325D-10 0.100000000000D+01 0.221200000000D+04 0.000000000000D+00
    0.200000000000D+01 0.630000000000D+02-0.111758708954D-07 0.420000000000D+02
    0.936180000000D+05 0.400000000000D+01 0.000000000000D+00 0.000000000000D+00
29 22  5 30  4  0  0.0-0.518860761076D-03-0.386535248253D-11 0.000000000000D+00
    0.180000000000D+02 0.650000000000D+01 0.412552898770D-08 0.280506695923D+01
    0.376254320145D-06 0.219000864308D-02 0.528991222382D-06 0.515370069885D+04
    0.100800000000D+06-0.372529029846D-08 0.151007600427D+01-0.931322574616D-08
    0.980542338747D+00 0.380312500000D+03 0.228061844816D+01-0.813033866124D-08
    0.125005206969D-10 0.100000000000D+01 0.221200000000D+04 0.000000000000D+00
    0.200000000000D+01 0.000000000000D+00-0.102445483208D-07 0.180000000000D+02
    0.936180000000D+05 0.400000000000D+01 0.000000000000D+00 0.000000000000D+00
30 22  5 30  4  0  0.0-0.529710203409D-03-0.125055521494D-11 0.000000000000D+00
    0.104000000000D+03-0.875000000000D+00 0.510128391752D-08-0.194309731266D+00
   -0.232830643654D-06 0.586689682677D-02 0.903755426407D-05 0.515376239014D+04
    0.100800000000D+06 0.186264514923D-07-0.642584324708D+00 0.353902578354D-07
    0.935990577433D+00 0.188812500000D+03-0.268486873247D+01-0.821641367518D-08
   -0.746816822204D-09 0.100000000000D+01 0.221200000000D+04 0.000000000000D+00
    0.200000000000D+01 0.000000000000D+00 0.372529029846D-08 0.104000000000D+03
    0.936180000000D+05 0.400000000000D+01 0.000000000000D+00 0.000000000000D+00
31 22  5 30  4  0  0.0-0.179701484740D-03-0.159161572810D-11 0.000000000000D+00
    0.770000000000D+02 0.221875000000D+01 0.462412118464D-08-0.642910357946D+00
    0.726431608200D-07 0.104284191038D-01 0.910647213459D-05 0.515374604225D+04
    0.100800000000D+06 0.208616256714D-06-0.635670494868D+00 0.117346644402D-06
    0.955046974043D+00 0.201625000000D+03 0.393272004306D+00-0.798497546342D-08
   -0.682528430049D-09 0.100000000000D+01 0.221200000000D+04 0.000000000000D+00
    0.200000000000D+01 0.000000000000D+00-0.135041773319D-07 0.770000000000D+02
    0.994390000000D+05 0.400000000000D+01 0.000000000000D+00 0.000000000000D+00
32 22  5 30  4  0  0.0-0.138835050166D-03-0.898126018001D-11 0.000000000000D+00
    0.106000000000D+03 0.568750000000D+01 0.512771358985D-08-0.290536262440D+01
    0.322237610817D-06 0.599607068580D-02 0.477582216263D-05 0.515359387779D+04
    0.100800000000D+06 0.651925802231D-07-0.171459579484D+01-0.203028321266D-06
    0.957729342597D+00 0.284218750000D+03-0.228149715136D+01-0.816391148825D-08
    0.653598653579D-10 0.100000000000D+01 0.221200000000D+04 0.000000000000D+00
    0.282842707634D+01 0.000000000000D+00 0.465661287308D-09 0.106000000000D+03
    0.936750000000D+05 0.400000000000D+01 0.000000000000D+00 0.000000000000D+00
 1 22  5 30  5 59 44.0 0.352063216269D-03-0.807176547823D-11 0.000000000000D+00
    0.600000000000D+01-0.123968750000D+03 0.368479634370D-08 0.154356048310D+01
   -0.652857124805D-05 0.119550491217D-01 0.722520053387D-05 0.515366830063D+04
    0.107984000000D+06-0.236555933952D-06 0.249582406532D+01 0.372529029846D-08
    0.987951676496D+00 0.256000000000D+03 0.911519239292D+00-0.782318300983D-08
   -0.192150860998D-09 0.100000000000D+01 0.221200000000D+04 0.000000000000D+00
    0.200000000000D+01 0.000000000000D+00 0.512227416039D-08 0.600000000000D+01
    0.100867000000D+06 0.400000000000D+01 0.000000000000D+00 0.000000000000D+00
 3 22  5 30  5 59 44.0-0.261891167611D-03-0.127329258248D-10 0.000000000000D+00
    0.400000000000D+01-0.169687500000D+02 0.407374111624D-08 0.437604411295D+00
   -0.114738941193D-05 0.422087777406D-02 0.105854123831D-04 0.515361937904D+04
    0.107984000000D+06-0.745058059692D-07-0.275392035005D+01 0.614672899246D-07
    0.974153444875D+00 0.185187500000D+03 0.961419629524D+00-0.767889128522D-08
    0.598596362513D-09 0.100000000000D+01 0.221200000000D+04 0.000000000000D+00
    0.200000000000D+01 0.000000000000D+00 0.186264514923D-08 0.400000000000D+01
    0.103597000000D+06 0.400000000000D+01 0.000000000000D+00 0.000000000000D+00
 5 22  5 30  5 59 44.0-0.836788676679D-04-0.136424205266D-11 0.000000000000D+00
    0.300000000000D+01-0.372500000000D+02 0.425267714107D-08-0.208849465297D+01
   -0.209733843803D-05 0.601510272827D-02 0.101905316114D-04 0.515373189545D+04
    0.107984000000D+06 0.894069671631D-07-0.279568713959D+01 0.111758708954D-07
    0.961187909152D+00 0.175562500000D+03 0.102796426341D+01-0.764960435101D-08
    0.666813489744D-09 0.100000000000D+01 0.221200000000D+04 0.000000000000D+00
    0.200000000000D+01 0.000000000000D+00-0.111758708954D-07 0.300000000000D+01
    0.100818000000D+06 0.400000000000D+01 0.000000000000D+00 0.000000000000D+00
15 22  5 30  5 59 44.0-0.572670251131D-04 0.295585778076D-11 0.000000000000D+00
    0.190000000000D+02 0.133437500000D+02 0.564523514670D-08 0.276257820207D+01
    0.502914190292D-06 0.140652448172D-01 0.517442822456D-05 0.515378417969D+04
    0.107984000000D+06 0.447034835815D-07-0.183515160559D+01-0.208616256714D-06
    0.929910050601D+00 0.263531250000D+03 0.109552725505D+01-0.818712674098D-08
    0.294297972978D-09 0.100000000000D+01 0.221200000000D+04 0.000000000000D+00
    0.200000000000D+01 0.000000000000D+00-0.107102096081D-07 0.190000000000D+02
    0.103416000000D+06 0.400000000000D+01 0.000000000000D+00 0.000000000000D+00
22 22  5 30  5 59 44.0 0.267385039478D-03 0.625277607469D-11 0.000000000000D+00
    0.660000000000D+02 0.750000000000D+00 0.503628120990D-08-0.268095756832D+01
    0.372529029846D-07 0.133958528750D-01 0.464729964733D-05 0.515368776321D+04
    0.107984000000D+06 0.309199094772D-06-0.162409767679D+01 0.484287738800D-07
    0.960948133953D+00 0.286687500000D+03-0.184978792396D+01-0.801319092442D-08
    0.162506769059D-09 0.100000000000D+01 0.221200000000D+04 0.000000000000D+00
    0.200000000000D+01 0.000000000000D+00-0.838190317154D-08 0.660000000000D+02
    0.100871000000D+06 0.400000000000D+01 0.000000000000D+00 0.000000000000D+00
32 22  5 30  5 59 44.0-0.138899777085D-03-0.898126018001D-11 0.000000000000D+00
    0.600000000000D+01 0.628125000000D+01 0.511807033103D-08-0.185744083318D+01
    0.387430191040D-06 0.599586253520D-02 0.485219061375D-05 0.515359432602D+04
    0.107984000000D+06 0.838190317154D-07-0.171465561063D+01 0.614672899246D-07
    0.957730651909D+00 0.282437500000D+03-0.228151825250D+01-0.816676875013D-08
    0.277868717205D-09 0.100000000000D+01 0.221200000000D+04 0.000000000000D+00
    0.200000000000D+01 0.000000000000D+00 0.465661287308D-09 0.600000000000D+01
    0.100875000000D+06 0.400000000000D+01 0.000000000000D+00 0.000000000000D+00
 2 22  5 30  6  0  0.0-0.653058290482D-03 0.227373675443D-12 0.000000000000D+00
    0.750000000000D+02-0.137437500000D+03 0.403695386962D-08 0.170539908426D+01
   -0.729970633984D-05 0.204193590907D-01 0.503659248352D-05 0.515367670059D+04
    0.108000000000D+06 0.365078449249D-06 0.240439662856D+01-0.376254320145D-06
    0.966017562029D+00 0.283625000000D+03-0.141678886509D+01-0.787568519676D-08
   -0.133934150323D-09 0.100000000000D+01 0.221200000000D+04 0.000000000000D+00
    0.200000000000D+01 0.000000000000D+00-0.176951289177D-07 0.750000000000D+02
    0.100818000000D+06 0.400000000000D+01 0.000000000000D+00 0.000000000000D+00
 4 22  5 30  6  0  0.0-0.162327662110D-03 0.386535248253D-11 0.000000000000D+00
    0.200000000000D+01 0.381250000000D+01 0.507271129879D-08-0.299085104385D+01
    0.279396772385D-06 0.182845792733D-02 0.509060919285D-05 0.515360033798D+04
    0.108000000000D+06-0.465661287308D-07-0.167248876274D+01-0.149011611938D-07
    0.960863470495D+00 0.285500000000D+03-0.296083648382D+01-0.810462330438D-08
    0.111790370803D-09 0.100000000000D+01 0.221200000000D+04 0.000000000000D+00
    0.200000000000D+01 0.000000000000D+00-0.465661287308D-08 0.200000000000D+01
    0.105649000000D+06 0.400000000000D+01 0.000000000000D+00 0.000000000000D+00
 6 22  5 30  6  0  0.0 0.323132611811D-03 0.150066625793D-10 0.000000000000D+00
    0.102000000000D+03-0.137875000000D+03 0.359372112148D-08 0.177494165130D+01
   -0.701472163200D-05 0.253822316881D-02 0.677257776260D-05 0.515373599052D+04
    0.108000000000D+06 0.242143869400D-07 0.248754832458D+01 0.745058059692D-07
    0.987286550551D+00 0.261718750000D+03-0.854997063020D+00-0.764996150875D-08
   -0.149291932894D-09 0.100000000000D+01 0.221200000000D+04 0.000000000000D+00
    0.200000000000D+01 0.000000000000D+00 0.372529029846D-08 0.102000000000D+03
    0.100818000000D+06 0.400000000000D+01 0.000000000000D+00 0.000000000000D+00
